NORAD_CAT_ID,OBJECT_NAME,OBJECT_TYPE,EPOCH,MEAN_MOTION,ECCENTRICITY,INCLINATION,RA_OF_ASC_NODE,ARG_OF_PERICENTER,MEAN_ANOMALY,BSTAR,MEAN_MOTION_DOT,MEAN_MOTION_DDOT,TLE_LINE0,TLE_LINE1,TLE_LINE2,SEMIMAJOR_AXIS,PERIOD,APOGEE,PERIGEE,DECAYED
56775.0,STARLINK-6292,PAYLOAD,2024-04-17 14:18:22,14.98329071,0.0002822,70.002,247.0902,256.1412,103.9434,-5.0644e-05,-6.97e-06,0.0,0 STARLINK-6292,1 56775U 23078J   24108.59609566 -.00000697  00000-0 -50644-4 0  9998,2 56775  70.0020 247.0902 0002822 256.1412 103.9434 14.98329071 50148,6950.196,96.107,574.022,570.099,0.0
56775.0,STARLINK-6292,PAYLOAD,2024-04-17 19:06:46,14.98329121,0.0002709,70.0026,246.5862,257.51,102.5756,2.3108e-05,1.83e-06,0.0,0 STARLINK-6292,1 56775U 23078J   24108.79637391  .00000183  00000-0  23108-4 0  9990,2 56775  70.0026 246.5862 0002709 257.5100 102.5756 14.98329121 50177,6950.196,96.107,573.943,570.178,0.0
56775.0,STARLINK-6292,PAYLOAD,2024-04-18 12:44:15,14.98322068,0.0002929,70.0012,244.7332,266.0964,93.986,-5.5777e-05,-7.58e-06,0.0,0 STARLINK-6292,1 56775U 23078J   24109.53074039 -.00000758  00000-0 -55777-4 0  9994,2 56775  70.0012 244.7332 0002929 266.0964  93.9860 14.98322068 50544,6950.217,96.108,574.118,570.047,0.0
56775.0,STARLINK-6292,PAYLOAD,2024-04-18 19:08:47,14.98333901,0.0003019,70.0014,244.0623,259.2853,100.7967,-4.418e-05,-6.2e-06,0.0,0 STARLINK-6292,1 56775U 23078J   24109.79777231 -.00000620  00000-0 -44180-4 0  9990,2 56775  70.0014 244.0623 0003019 259.2853 100.7967 14.98333901 50581,6950.181,96.107,574.144,569.948,0.0
56775.0,STARLINK-6292,PAYLOAD,2024-04-19 12:46:16,14.98325081,0.0002954,70.0015,242.2096,260.3392,99.7433,-1.9803e-05,-3.29e-06,0.0,0 STARLINK-6292,1 56775U 23078J   24110.53213875 -.00000329  00000-0 -19803-4 0  9993,2 56775  70.0015 242.2096 0002954 260.3392  99.7433 14.98325081 50691,6950.208,96.107,574.126,570.02,0.0
56775.0,STARLINK-6292,PAYLOAD,2024-04-19 14:22:24,14.98327677,0.0002541,70.0025,242.041,266.8734,93.2135,7.251e-06,-6e-08,0.0,0 STARLINK-6292,1 56775U 23078J   24110.59889730 -.00000006  00000-0  72510-5 0  9994,2 56775  70.0025 242.0410 0002541 266.8734  93.2135 14.98327677 50447,6950.2,96.107,573.831,570.299,0.0
56775.0,STARLINK-6292,PAYLOAD,2024-04-19 19:10:48,14.98335244,0.000243,70.0028,241.536,254.0555,106.0336,0.00015429,1.749e-05,0.0,0 STARLINK-6292,1 56775U 23078J   24110.79916785  .00001749  00000-0  15429-3 0  9995,2 56775  70.0028 241.5360 0002430 254.0555 106.0336 14.98335244 50732,6950.177,96.107,573.731,570.353,0.0
56775.0,STARLINK-6292,PAYLOAD,2024-04-20 09:33:40,15.00211985,0.001169,70.0045,240.0197,222.6448,137.3806,0.020809,0.00271182,0.0,0 STARLINK-6292,1 56775U 23078J   24111.39837979  .00271182  00000-0  20809-1 0  9995,2 56775  70.0045 240.0197 0011690 222.6448 137.3806 15.00211985 50821,6944.379,95.986,574.362,558.126,0.0
56775.0,STARLINK-6292,PAYLOAD,2024-04-20 12:48:17,14.98328085,0.0002435,70.0047,239.6861,255.1769,104.9121,0.00015352,1.739e-05,0.0,0 STARLINK-6292,1 56775U 23078J   24111.53353021  .00001739  00000-0  15352-3 0  9990,2 56775  70.0047 239.6861 0002435 255.1769 104.9121 14.98328085 50588,6950.199,96.107,573.756,570.371,0.0
56775.0,STARLINK-6292,PAYLOAD,2024-04-20 20:46:33,15.00218856,0.0009813,70.0017,238.84,322.4857,37.5617,0.020706,0.00269747,0.0,0 STARLINK-6292,1 56775U 23078J   24111.86567104  .00269747  00000-0  20706-1 0  9997,2 56775  70.0017 238.8400 0009813 322.4857  37.5617 15.00218856 50891,6944.358,95.986,573.037,559.408,0.0
56775.0,STARLINK-6292,PAYLOAD,2024-04-21 04:00:00,14.9824327,0.0003406,70.002,238.0855,274.8557,259.5016,0.0073485,0.00088507,0.0,0 STARLINK-6292,1 56775U 23078J   24112.16667824  .00088507  00000-0  73485-2 0  9997,2 56775  70.0020 238.0855 0003406 274.8557 259.5016 14.98243270 50949,6950.461,96.113,574.693,569.959,0.0
56775.0,STARLINK-6292,PAYLOAD,2024-04-21 14:26:27,14.98313416,0.0002659,70.002,236.9895,267.1719,92.9135,-0.00026756,-3.282e-05,0.0,0 STARLINK-6292,1 56775U 23078J   24112.60170909 -.00003282  00000-0 -26756-3 0  9998,2 56775  70.0020 236.9895 0002659 267.1719  92.9135 14.98313416 50743,6950.244,96.108,573.957,570.261,0.0
56775.0,STARLINK-6292,PAYLOAD,2024-04-21 17:38:43,14.98318493,0.0002578,70.0027,236.6546,261.4592,98.6275,-0.0001567,-1.961e-05,0.0,0 STARLINK-6292,1 56775U 23078J   24112.73522303 -.00001961  00000-0 -15670-3 0  9996,2 56775  70.0027 236.6546 0002578 261.4592  98.6275 14.98318493 51026,6950.228,96.108,573.885,570.302,0.0
56775.0,STARLINK-6292,PAYLOAD,2024-04-22 11:16:11,14.98333242,0.0003333,70.0013,234.8017,274.1516,85.9262,-0.00018086,-2.251e-05,0.0,0 STARLINK-6292,1 56775U 23078J   24113.46957611 -.00002251  00000-0 -18086-3 0  9998,2 56775  70.0013 234.8017 0003333 274.1516  85.9262 14.98333242 51137,6950.183,96.107,574.364,569.731,0.0
56775.0,STARLINK-6292,PAYLOAD,2024-04-22 17:40:42,14.98346759,0.0002594,70.0026,234.1311,263.4772,96.6092,-5.8094e-05,-7.86e-06,0.0,0 STARLINK-6292,1 56775U 23078J   24113.73660266 -.00000786  00000-0 -58094-4 0  9990,2 56775  70.0026 234.1311 0002594 263.4772  96.6092 14.98346759 51175,6950.141,96.106,573.809,570.203,0.0
56775.0,STARLINK-6292,PAYLOAD,2024-04-23 11:18:13,14.98302604,0.0002615,70.0046,232.283,261.6663,98.4199,0.00023275,2.683e-05,0.0,0 STARLINK-6292,1 56775U 23078J   24114.47098425  .00002683  00000-0  23275-3 0  9992,2 56775  70.0046 232.2830 0002615 261.6663  98.4199 14.98302604 51286,6950.278,96.109,573.96,570.325,0.0
56775.0,STARLINK-6292,PAYLOAD,2024-04-23 14:30:28,14.98311999,0.00029,70.0028,231.9438,270.9262,89.1565,0.00013703,1.542e-05,0.0,0 STARLINK-6292,1 56775U 23078J   24114.60450223  .00001542  00000-0  13703-3 0  9993,2 56775  70.0028 231.9438 0002900 270.9262  89.1565 14.98311999 51046,6950.249,96.108,574.129,570.098,0.0
56775.0,STARLINK-6292,PAYLOAD,2024-04-23 17:42:45,14.98313895,0.0002811,70.004,231.6103,275.0945,84.9893,0.0001813,2.07e-05,0.0,0 STARLINK-6292,1 56775U 23078J   24114.73802162  .00002070  00000-0  18130-3 0  9996,2 56775  70.0040 231.6103 0002811 275.0945  84.9893 14.98313895 51326,6950.243,96.108,574.061,570.154,0.0
56775.0,STARLINK-6292,PAYLOAD,2024-04-24 06:00:00,14.98305499,0.0003583,70.0031,230.312,264.2576,336.7145,0.0072048,0.00086895,0.0,0 STARLINK-6292,1 56775U 23078J   24115.25001157  .00086895  00000-0  72048-2 0  9993,2 56775  70.0031 230.3120 0003583 264.2576 336.7145 14.98305499 51406,6950.269,96.109,574.624,569.643,0.0
56775.0,STARLINK-6292,PAYLOAD,2024-04-24 14:00:01,14.98370132,0.0003494,70.0031,229.4717,268.7312,329.7179,-0.0057942,-0.0006863,0.0,0 STARLINK-6292,1 56775U 23078J   24115.58334491 -.00068630  00000-0 -57942-2 0  9994,2 56775  70.0031 229.4717 0003494 268.7312 329.7179 14.98370132 51455,6950.069,96.104,574.362,569.505,0.0
56775.0,STARLINK-6292,PAYLOAD,2024-04-24 22:00:00,14.98330518,0.0003313,70.0029,228.6314,270.7057,325.2485,-0.001451,-0.00017364,0.0,0 STARLINK-6292,1 56775U 23078J   24115.91667824 -.00017364  00000-0 -14510-2 0  9992,2 56775  70.0029 228.6314 0003313 270.7057 325.2485 14.98330518  5561,6950.191,96.107,574.359,569.754,0.0
56775.0,STARLINK-6292,PAYLOAD,2024-04-25 00:00:00,14.98322643,0.0003284,70.003,228.4213,269.5893,55.736,-1.2006e-05,-2.36e-06,0.0,0 STARLINK-6292,1 56775U 23078J   24116.00001157 -.00000236  00000-0 -12006-4 0  9994,2 56775  70.0030 228.4213 0003284 269.5893  55.7360 14.98322643 51513,6950.216,96.107,574.363,569.798,0.0
56775.0,STARLINK-6292,PAYLOAD,2024-04-25 14:34:30,14.98310142,0.000251,70.0036,226.8954,247.5625,112.5269,0.00038787,4.536e-05,0.0,0 STARLINK-6292,1 56775U 23078J   24116.60730125  .00004536  00000-0  38787-3 0  9992,2 56775  70.0036 226.8954 0002510 247.5625 112.5269 14.98310142 51345,6950.254,96.108,573.864,570.375,0.0
56775.0,STARLINK-6292,PAYLOAD,2024-04-25 16:10:38,14.98337267,0.0002431,70.0037,226.727,242.6101,117.4811,-5.3774e-05,-7.35e-06,0.0,0 STARLINK-6292,1 56775U 23078J   24116.67405563 -.00000735  00000-0 -53774-4 0  9997,2 56775  70.0037 226.7270 0002431 242.6101 117.4811 14.98337267 51617,6950.17,96.107,573.725,570.346,0.0
56775.0,STARLINK-6292,PAYLOAD,2024-04-26 14:36:30,14.98335706,0.0002715,70.0026,224.3678,254.011,106.075,6.7881e-05,7.17e-06,0.0,0 STARLINK-6292,1 56775U 23078J   24117.60869186  .00000717  00000-0  67881-4 0  9998,2 56775  70.0026 224.3678 0002715 254.0110 106.0750 14.98335706 51491,6950.175,96.107,573.927,570.153,0.0
56775.0,STARLINK-6292,PAYLOAD,2024-04-26 16:12:38,14.9833669,0.0002652,70.0029,224.1999,253.3387,106.7481,0.00010359,1.143e-05,0.0,0 STARLINK-6292,1 56775U 23078J   24117.67545003  .00001143  00000-0  10359-3 0  9995,2 56775  70.0029 224.1999 0002652 253.3387 106.7481 14.98336690 51767,6950.172,96.107,573.88,570.194,0.0
56775.0,STARLINK-6292,PAYLOAD,2024-04-26 17:48:46,14.98336146,0.0002636,70.0032,224.0299,248.821,111.2668,0.00014086,1.588e-05,0.0,0 STARLINK-6292,1 56775U 23078J   24117.74220897  .00001588  00000-0  14086-3 0  9998,2 56775  70.0032 224.0299 0002636 248.8210 111.2668 14.98336146 51516,6950.174,96.107,573.871,570.207,0.0
56775.0,STARLINK-6292,PAYLOAD,2024-04-27 13:02:23,14.98333335,0.0002837,70.0018,222.0117,265.5072,94.5763,-1.0455e-05,-2.18e-06,0.0,0 STARLINK-6292,1 56775U 23078J   24118.54333253 -.00000218  00000-0 -10455-4 0  9996,2 56775  70.0018 222.0117 0002837 265.5072  94.5763 14.98333335 51899,6950.183,96.107,574.019,570.076,0.0
56775.0,STARLINK-6292,PAYLOAD,2024-04-27 16:14:39,14.9833439,0.0002778,70.0023,221.6757,263.8065,96.2778,-6.9207e-06,-1.76e-06,0.0,0 STARLINK-6292,1 56775U 23078J   24118.67685137 -.00000176  00000-0 -69207-5 0  9994,2 56775  70.0023 221.6757 0002778 263.8065  96.2778 14.98334390 51658,6950.179,96.107,573.975,570.114,0.0
56775.0,STARLINK-6292,PAYLOAD,2024-04-28 13:04:26,14.98320516,0.0002995,70.0009,219.4836,264.5747,95.507,-0.00020779,-2.571e-05,0.0,0 STARLINK-6292,1 56775U 23078J   24119.54474734 -.00002571  00000-0 -20779-3 0  9990,2 56775  70.0009 219.4836 0002995 264.5747  95.5070 14.98320516 52047,6950.222,96.108,574.169,570.006,0.0
